[{"OBJECT_NAME":"LEMUR-2-VALHALLA","OBJECT_ID":"2024-022B","EPOCH":"2026-03-09T12:58:09.060096","MEAN_MOTION":15.36522305,"ECCENTRICITY":0.00112289,"INCLINATION":97.4228,"RA_OF_ASC_NODE":277.4862,"ARG_OF_PERICENTER":109.8773,"MEAN_ANOMALY":250.3682,"EPHEMERIS_TYPE":0,"CLASSIFICATION_TYPE":"U","NORAD_CAT_ID":58900,"ELEMENT_SET_NO":999,"REV_AT_EPOCH":11695,"BSTAR":0.00053647225,"MEAN_MOTION_DOT":0.00019103,"MEAN_MOTION_DDOT":0},{"OBJECT_NAME":"CZ-2C R\/B","OBJECT_ID":"2025-040C","EPOCH":"2026-03-09T20:48:45.699840","MEAN_MOTION":15.35891971,"ECCENTRICITY":0.00146139,"INCLINATION":97.1638,"RA_OF_ASC_NODE":181.5862,"ARG_OF_PERICENTER":64.9841,"MEAN_ANOMALY":295.2919,"EPHEMERIS_TYPE":0,"CLASSIFICATION_TYPE":"U","NORAD_CAT_ID":63127,"ELEMENT_SET_NO":999,"REV_AT_EPOCH":5741,"BSTAR":0.00046093655,"MEAN_MOTION_DOT":0.00016093,"MEAN_MOTION_DDOT":0}]
